[{"OBJECT_NAME":"LEMUR-2-WILSON","OBJECT_ID":"2025-009CP","EPOCH":"2026-03-09T05:30:24.962112","MEAN_MOTION":14.94676648,"ECCENTRICITY":0.00035998,"INCLINATION":97.7068,"RA_OF_ASC_NODE":148.4663,"ARG_OF_PERICENTER":38.3481,"MEAN_ANOMALY":321.7994,"EPHEMERIS_TYPE":0,"CLASSIFICATION_TYPE":"U","NORAD_CAT_ID":62694,"ELEMENT_SET_NO":999,"REV_AT_EPOCH":6242,"BSTAR":0.00038001,"MEAN_MOTION_DOT":4.065e-5,"MEAN_MOTION_DDOT":0},{"OBJECT_NAME":"FFLY01","OBJECT_ID":"2025-188F","EPOCH":"2026-03-09T23:07:21.655776","MEAN_MOTION":14.92848579,"ECCENTRICITY":0.00112982,"INCLINATION":97.7442,"RA_OF_ASC_NODE":145.8408,"ARG_OF_PERICENTER":138.2853,"MEAN_ANOMALY":221.923,"EPHEMERIS_TYPE":0,"CLASSIFICATION_TYPE":"U","NORAD_CAT_ID":65320,"ELEMENT_SET_NO":999,"REV_AT_EPOCH":2910,"BSTAR":0.000290729,"MEAN_MOTION_DOT":2.958e-5,"MEAN_MOTION_DDOT":0}]
